ONEWEB-0403             
1 50483U 21132Q   24122.74845015  .00000056  00000+0  11025-3 0  9996
2 50483  87.9117 130.0238 0001881  85.1642 274.9705 13.18683039119261
ONEWEB-0404             
1 50484U 21132R   24122.85912946 -.00000484  00000+0 -14025-2 0  9996
2 50484  87.9006 175.4875 0002058  84.5865 275.5498 13.11415078113940
ONEWEB-0405             
1 50485U 21132S   24122.76426557  .00000055  00000+0  10597-3 0  9998
2 50485  87.9119 130.0102 0001532  91.4224 268.7083 13.18683919119665
ONEWEB-0406             
1 50486U 21132T   24122.75321527 -.00000138  00000+0 -38279-3 0  9990
2 50486  87.9120 130.0227 0002255  80.9564 279.1823 13.18685258119294
ONEWEB-0407             
1 50487U 21132U   24122.44337167 -.00000208  00000+0 -55977-3 0  9996
2 50487  87.9116 130.0884 0001841  88.8620 271.2724 13.18685385119192
ONEWEB-0409             
1 50488U 21132V   24122.85750877 -.00000418  00000+0 -12139-2 0  9994
2 50488  87.8992 175.4884 0002432  83.1821 276.9584 13.11416579113836
ONEWEB-0412             
1 50489U 21132W   24122.73581958  .00000108  00000+0  24005-3 0  9994
2 50489  87.9123 130.0276 0001470  90.5841 269.5459 13.18685418119327
ONEWEB-0413             
1 50490U 21132X   24122.43706434 -.00000043  00000+0 -14191-3 0  9996
2 50490  87.9121 130.1002 0001650  98.2842 261.8478 13.18686466119220
